GPS BIIA-23 (PRN 18)    
1 22877U 93068A   18115.49425642 -.00000001  00000-0  00000+0 0  9995
2 22877  54.3928  85.6662 0142029  74.1861  77.3700  2.00564368179495
GPS BIIR-2  (PRN 13)    
1 24876U 97035A   18115.17784413 -.00000042  00000-0  00000+0 0  9998
2 24876  55.4942 214.8475 0032488  91.6477 268.7351  2.00565162152083
GPS BIIR-3  (PRN 11)    
1 25933U 99055A   18115.49873132 -.00000056  00000-0  00000+0 0  9994
2 25933  51.8538  63.9862 0165516 100.5704  56.0099  2.00568265135900
GPS BIIR-4  (PRN 20)    
1 26360U 00025A   18115.16601060  .00000056  00000-0  00000+0 0  9990
2 26360  53.1850 141.8741 0040441 111.6442 241.6885  2.00427521131595
GPS BIIR-5  (PRN 28)    
1 26407U 00040A   18115.02673367 -.00000049  00000-0  00000+0 0  9996
2 26407  56.5066 332.9718 0197426 272.8657 290.7979  2.00563460130269
GPS BIIR-6  (PRN 14)    
1 26605U 00071A   18115.48774469 -.00000040  00000-0  00000+0 0  9996
2 26605  55.0670 212.4475 0098848 248.3774 191.8478  2.00553799127874
GPS BIIR-8  (PRN 16)    
1 27663U 03005A   18114.99911590 -.00000049  00000-0  00000+0 0  9993
2 27663  56.5717 332.7282 0099239  27.6427 274.7664  2.00570169111632
GPS BIIR-9  (PRN 21)    
1 27704U 03010A   18115.47351417 -.00000003  00000-0  00000+0 0  9995
2 27704  54.0626  85.2704 0246950 270.2513 335.3158  2.00557739110432
GPS BIIR-10 (PRN 22)    
1 28129U 03058A   18114.36873120  .00000048  00000-0  00000+0 0  9994
2 28129  52.9974 144.7754 0076804 270.1293  89.0522  2.00579182105119
GPS BIIR-11 (PRN 19)    
1 28190U 04009A   18114.79321826 -.00000092  00000-0  00000+0 0  9997
2 28190  56.1520  33.6073 0096304  66.0826 236.9881  2.00559546103303
GPS BIIR-12 (PRN 23)    
1 28361U 04023A   18115.49447149 -.00000035  00000-0  00000+0 0  9995
2 28361  54.0650 207.2409 0124808 224.9941 142.2908  2.00576705101404
GPS BIIR-13 (PRN 02)    
1 28474U 04045A   18115.01663476  .00000001  00000-0  00000+0 0  9997
2 28474  54.4326  84.8823 0181172 253.3409 128.0312  2.00557541 98755
GPS BIIRM-1 (PRN 17)    
1 28874U 05038A   18114.72928344 -.00000094  00000-0  00000+0 0  9992
2 28874  56.2954  30.9135 0126009 258.4023  16.8207  2.00578556 92154
GPS BIIRM-2 (PRN 31)    
1 29486U 06042A   18115.01504785 -.00000028  00000-0  00000+0 0  9997
2 29486  55.2112 269.7972 0087998 351.0085  58.0135  2.00566615 84872
GPS BIIRM-3 (PRN 12)    
1 29601U 06052A   18114.89314609 -.00000047  00000-0  00000+0 0  9997
2 29601  56.5471 331.6496 0069891  54.0761 306.6093  2.00571966 83785
GPS BIIRM-4 (PRN 15)    
1 32260U 07047A   18114.71017805 -.00000033  00000-0  00000+0 0  9991
2 32260  53.1893 203.3428 0100743  37.7028 323.0289  2.00556856 77163
GPS BIIRM-5 (PRN 29)    
1 32384U 07062A   18114.86137807 -.00000094  00000-0  00000+0 0  9993
2 32384  56.3680  31.5131 0005241  43.0041 200.3987  2.00560165 75891
GPS BIIRM-6 (PRN 07)    
1 32711U 08012A   18115.12156404 -.00000031  00000-0  00000+0 0  9998
2 32711  54.9442 269.0849 0115917 215.5118 143.6812  2.00563598 74081
GPS BIIRM-8 (PRN 05)    
1 35752U 09043A   18115.16400685  .00000055  00000-0  00000+0 0  9993
2 35752  54.3065 146.8613 0051852  32.7394  28.6912  2.00561575 63676
GPS BIIF-1  (PRN 25)    
1 36585U 10022A   18114.39249470 -.00000043  00000-0  00000+0 0  9992
2 36585  55.8406 328.2687 0072834  47.2627 278.7360  2.00565834 57902
GPS BIIF-2  (PRN 01)    
1 37753U 11036A   18115.13802939  .00000011  00000-0  00000+0 0  9998
2 37753  55.6328  88.3402 0075223  33.8704 197.5969  2.00563926 49591
GPS BIIF-3  (PRN 24)    
1 38833U 12053A   18114.80439757 -.00000031  00000-0  00000+0 0  9998
2 38833  53.9738 265.7073 0068029  29.5725 330.7787  2.00565899 40662
GPS BIIF-4  (PRN 27)    
1 39166U 13023A   18114.66059534 -.00000096  00000-0  00000+0 0  9992
2 39166  55.9942  27.8297 0057717  20.6780 339.5621  2.00562936 36197
GPS BIIF-5  (PRN 30)    
1 39533U 14008A   18114.65891345 -.00000026  00000-0  00000+0 0  9990
2 39533  54.1202 271.0551 0033046 185.6088 174.3266  2.00554583 30556
GPS BIIF-6  (PRN 06)    
1 39741U 14026A   18114.94080689  .00000012  00000-0  00000+0 0  9998
2 39741  55.6168  87.8707 0014223 291.9852  67.8497  2.00570746 28846
GPS BIIF-7  (PRN 09)    
1 40105U 14045A   18115.03337275 -.00000036  00000-0  00000+0 0  9999
2 40105  54.5905 207.3357 0007947 109.7514 250.3582  2.00567372 27298
GPS BIIF-8  (PRN 03)    
1 40294U 14068A   18115.39961337  .00000058  00000-0  00000+0 0  9997
2 40294  55.0572 148.0770 0012309  15.0665 345.0385  2.00551778 25527
GPS BIIF-9  (PRN 26)    
1 40534U 15013A   18115.03909678 -.00000046  00000-0  00000+0 0  9994
2 40534  54.7834 327.0187 0027793   1.6008 358.4417  2.00566791 22585
GPS BIIF-10  (PRN 08)   
1 40730U 15033A   18114.70725682 -.00000097  00000-0  00000+0 0  9994
2 40730  55.5251  27.3584 0035994 329.7585  30.0429  2.00577641 20335
GPS BIIF-11  (PRN 10)   
1 41019U 15062A   18114.75387317  .00000053  00000-0  00000+0 0  9992
2 41019  55.0628 147.9036 0035660 205.5596 154.3294  2.00564212 18150
GPS BIIF-12  (PRN 32)   
1 41328U 16007A   18114.34277881 -.00000035  00000-0  00000+0 0  9995
2 41328  54.8421 207.6385 0021310 216.2222 143.6573  2.00565161 16203
